{
    "satellites": [
        {
            "name": "starlink340",
            "title": "Starlink-340 (G6-88) (new)",
            "tle": [
                "1 71349C 26002W   26006.09006944 -.00016892  00000+0 -20857-4 0    62",
                "2 71349  43.0025 331.8265 0003468 260.6932 229.7054 16.06856957    10"
            ],
            "stdMag": 5,
            "noradId": "71349",
            "tleUrl": "http://celestrak.org/NORAD/elements/supplemental/sup-gp.php?FILE=starlink&FORMAT=tle",
            "launchDate": "2026-01-04T06:48:10.000Z",
            "active": true,
            "batch": [
                {
                    "noradId": "54094",
                    "tle": [
                        "1 54094C 22136AV  26006.19215278  .00899710  00000+0  81321-3 0    65",
                        "2 54094  53.2123 238.4841 0003237 198.5677 255.5328 16.10998376    19"
                    ]
                }
            ]
        }
    ],
    "config": {}
}